{"type":"FeatureCollection","features":[{"type":"Feature","properties":{"elevation":200},"geometry":{"type":"Point","coordinates":[116.0264,24.2069]}},{"type":"Feature","properties":{"elevation":400},"geometry":{"type":"Point","coordinates":[106.0547,29.3654]}},{"type":"Feature","properties":{"elevation":400},"geometry":{"type":"Point","coordinates":[107.538,24.3137]}},{"type":"Feature","properties":{"elevation":600},"geometry":{"type":"Point","coordinates":[109.1602,29.4314]}},{"type":"Feature","properties":{"elevation":600},"geometry":{"type":"Point","coordinates":[117.4975,24.7402]}},{"type":"Feature","properties":{"elevation":800},"geometry":{"type":"Point","coordinates":[109.043,29.5861]}},{"type":"Feature","properties":{"elevation":800},"geometry":{"type":"Point","coordinates":[107.4609,24.4084]}},{"type":"Feature","properties":{"elevation":1000},"geometry":{"type":"Point","coordinates":[109.043,28.7567]}},{"type":"Feature","properties":{"elevation":1200},"geometry":{"type":"Point","coordinates":[107.2266,35.5051]}},{"type":"Feature","properties":{"elevation":1200},"geometry":{"type":"Point","coordinates":[107.2852,26.0971]}},{"type":"Feature","properties":{"elevation":1400},"geometry":{"type":"Point","coordinates":[106.4676,32.349]}},{"type":"Feature","properties":{"elevation":1600},"geometry":{"type":"Point","coordinates":[107.7539,37.0754]}},{"type":"Feature","properties":{"elevation":1600},"geometry":{"type":"Point","coordinates":[104.2511,24.2603]}},{"type":"Feature","properties":{"elevation":1800},"geometry":{"type":"Point","coordinates":[101.25,24.5719]}},{"type":"Feature","properties":{"elevation":2200},"geometry":{"type":"Point","coordinates":[102.7734,36.6203]}},{"type":"Feature","properties":{"elevation":2400},"geometry":{"type":"Point","coordinates":[108.9844,31.5952]}},{"type":"Feature","properties":{"elevation":2600},"geometry":{"type":"Point","coordinates":[100.8984,24.9993]}},{"type":"Feature","properties":{"elevation":3000},"geometry":{"type":"Point","coordinates":[100.7813,26.3562]}},{"type":"Feature","properties":{"elevation":3400},"geometry":{"type":"Point","coordinates":[103.26,28.2528]}},{"type":"Feature","properties":{"elevation":3800},"geometry":{"type":"Point","coordinates":[100.8572,32.8919]}},{"type":"Feature","properties":{"elevation":4000},"geometry":{"type":"Point","coordinates":[100.3197,27.5278]}},{"type":"Feature","properties":{"elevation":4400},"geometry":{"type":"Point","coordinates":[100.761,29.0754]}}]}